NORAD_CAT_ID,OBJECT_NAME,OBJECT_TYPE,EPOCH,MEAN_MOTION,ECCENTRICITY,INCLINATION,RA_OF_ASC_NODE,ARG_OF_PERICENTER,MEAN_ANOMALY,BSTAR,MEAN_MOTION_DOT,MEAN_MOTION_DDOT,TLE_LINE0,TLE_LINE1,TLE_LINE2,SEMIMAJOR_AXIS,PERIOD,APOGEE,PERIGEE,DECAYED
53598.0,STARLINK-4676,PAYLOAD,2023-01-30 21:35:13,15.08835075,0.0001288,53.2125,293.7306,84.1965,275.9174,-7.1564e-05,-1.426e-05,0.0,0 STARLINK-4676,1 53598U 22104L   23030.89946320 -.00001426  00000-0 -71564-4 0  9990,2 53598  53.2125 293.7306 0001288  84.1965 275.9174 15.08835075 24454,6917.895,95.438,540.651,538.869,0.0
53598.0,STARLINK-4676,PAYLOAD,2023-01-31 02:21:22,15.0883839,0.0001292,53.2127,292.8385,82.6979,277.4159,-1.9679e-05,-6.01e-06,0.0,0 STARLINK-4676,1 53598U 22104L   23031.09818131 -.00000601  00000-0 -19679-4 0  9994,2 53598  53.2127 292.8385 0001292  82.6979 277.4159 15.08838390 23795,6917.885,95.438,540.644,538.857,0.0
53598.0,STARLINK-4676,PAYLOAD,2023-01-31 18:15:14,15.08844007,0.0001181,53.2123,289.8643,96.6946,263.4181,0.00016036,2.265e-05,0.0,0 STARLINK-4676,1 53598U 22104L   23031.76057935  .00002265  00000-0  16036-3 0  9994,2 53598  53.2123 289.8643 0001181  96.6946 263.4181 15.08844007 24580,6917.868,95.437,540.55,538.916,0.0
53598.0,STARLINK-4676,PAYLOAD,2023-02-01 02:12:09,15.08854882,0.0001233,53.2124,288.3774,97.3654,262.7478,0.00032368,4.869e-05,0.0,0 STARLINK-4676,1 53598U 22104L   23032.09177372  .00004869  00000-0  32368-3 0  9997,2 53598  53.2124 288.3774 0001233  97.3654 262.7478 15.08854882 23944,6917.835,95.437,540.553,538.847,0.0
53598.0,STARLINK-4676,PAYLOAD,2023-02-02 02:02:56,15.08843006,0.0001147,53.2119,283.9172,89.8981,270.2143,0.00013946,1.933e-05,0.0,0 STARLINK-4676,1 53598U 22104L   23033.08538093  .00001933  00000-0  13946-3 0  9998,2 53598  53.2119 283.9172 0001147  89.8981 270.2143 15.08843006 24090,6917.871,95.437,540.53,538.943,0.0
53598.0,STARLINK-4676,PAYLOAD,2023-02-03 01:53:43,15.08851757,0.0001213,53.2113,279.4561,87.0636,273.0495,0.00029879,4.472e-05,0.0,0 STARLINK-4676,1 53598U 22104L   23034.07897492  .00004472  00000-0  29879-3 0  9992,2 53598  53.2113 279.4561 0001213  87.0636 273.0495 15.08851757 24933,6917.844,95.437,540.549,538.87,0.0
53598.0,STARLINK-4676,PAYLOAD,2023-02-03 16:12:12,15.0883882,0.000119,53.2109,276.7808,81.7497,278.363,7.616e-05,9.24e-06,0.0,0 STARLINK-4676,1 53598U 22104L   23034.67514308  .00000924  00000-0  76160-4 0  9994,2 53598  53.2109 276.7808 0001190  81.7497 278.3630 15.08838820 24331,6917.884,95.438,540.572,538.926,0.0
53598.0,STARLINK-4676,PAYLOAD,2023-02-04 22:24:31,15.08848848,0.0001253,53.2113,271.1294,88.4522,271.6613,0.00023677,3.483e-05,0.0,0 STARLINK-4676,1 53598U 22104L   23035.93370004  .00003483  00000-0  23677-3 0  9994,2 53598  53.2113 271.1294 0001253  88.4522 271.6613 15.08848848 24526,6917.853,95.437,540.585,538.852,0.0
53598.0,STARLINK-4676,PAYLOAD,2023-02-05 01:35:17,15.08850177,0.0001256,53.2111,270.5346,88.3689,271.7447,0.00035072,5.3e-05,0.0,0 STARLINK-4676,1 53598U 22104L   23036.06617989  .00005300  00000-0  35072-3 0  9997,2 53598  53.2111 270.5346 0001256  88.3689 271.7447 15.08850177 25234,6917.849,95.437,540.583,538.845,0.0
53598.0,STARLINK-4676,PAYLOAD,2023-02-05 19:04:32,15.08839594,0.0001189,53.2108,267.2633,86.5346,273.5782,0.00011368,1.522e-05,0.0,0 STARLINK-4676,1 53598U 22104L   23036.79482461  .00001522  00000-0  11368-3 0  9996,2 53598  53.2108 267.2633 0001189  86.5346 273.5782 15.08839594 24654,6917.882,95.438,540.569,538.924,0.0
53598.0,STARLINK-4676,PAYLOAD,2023-02-05 22:15:19,15.08841587,0.0001177,53.211,266.6683,92.6269,267.4857,0.00014993,2.099e-05,0.0,0 STARLINK-4676,1 53598U 22104L   23036.92730371  .00002099  00000-0  14993-3 0  9994,2 53598  53.2110 266.6683 0001177  92.6269 267.4857 15.08841587 25363,6917.876,95.437,540.555,538.926,0.0
53598.0,STARLINK-4676,PAYLOAD,2023-02-06 01:26:05,15.08841762,0.0001166,53.2108,266.0735,92.8564,267.2561,0.0001478,2.065e-05,0.0,0 STARLINK-4676,1 53598U 22104L   23037.05978367  .00002065  00000-0  14780-3 0  9995,2 53598  53.2108 266.0735 0001166  92.8564 267.2561 15.08841762 25387,6917.875,95.437,540.547,538.933,0.0
53598.0,STARLINK-4676,PAYLOAD,2023-02-06 20:30:42,15.08846113,0.0001096,53.2106,262.5051,94.3442,265.7675,0.00026195,3.884e-05,0.0,0 STARLINK-4676,1 53598U 22104L   23037.85466274  .00003884  00000-0  26195-3 0  9995,2 53598  53.2106 262.5051 0001096  94.3442 265.7675 15.08846113 24812,6917.862,95.437,540.485,538.969,0.0
53598.0,STARLINK-4676,PAYLOAD,2023-02-07 13:59:58,15.08827533,0.000149,53.21,259.2331,87.312,272.8042,-6.647e-05,-1.345e-05,0.0,0 STARLINK-4676,1 53598U 22104L   23038.58331310 -.00001345  00000-0 -66470-4 0  9991,2 53598  53.2100 259.2331 0001490  87.3120 272.8042 15.08827533 24927,6917.918,95.438,540.814,538.753,0.0
53598.0,STARLINK-4676,PAYLOAD,2023-02-07 20:21:31,15.0881946,9.04e-05,53.2103,258.0432,110.9112,249.1976,-0.00017724,-3.106e-05,0.0,0 STARLINK-4676,1 53598U 22104L   23038.84827894 -.00003106  00000-0 -17724-3 0  9991,2 53598  53.2103 258.0432 0000904 110.9112 249.1976 15.08819460 24969,6917.943,95.439,540.434,539.183,0.0
53598.0,STARLINK-4676,PAYLOAD,2023-02-07 21:56:54,15.08819027,8.27e-05,53.2101,257.7459,119.0967,241.0108,-0.00017197,-3.022e-05,0.0,0 STARLINK-4676,1 53598U 22104L   23038.91451973 -.00003022  00000-0 -17197-3 0  9991,2 53598  53.2101 257.7459 0000827 119.0967 241.0108 15.08819027 25669,6917.944,95.439,540.382,539.237,0.0
53598.0,STARLINK-4676,PAYLOAD,2023-02-08 02:43:04,15.08818941,8.21e-05,53.2109,256.8533,96.8612,263.2473,-0.0001298,-2.352e-05,0.0,0 STARLINK-4676,1 53598U 22104L   23039.11324318 -.00002352  00000-0 -12980-3 0  9996,2 53598  53.2109 256.8533 0000821  96.8612 263.2473 15.08818941 25691,6917.945,95.439,540.378,539.242,0.0
53598.0,STARLINK-4676,PAYLOAD,2023-02-08 18:36:55,15.08831787,6.88e-05,53.2111,253.8784,109.0402,251.0665,0.00022684,3.324e-05,0.0,0 STARLINK-4676,1 53598U 22104L   23039.77564596  .00003324  00000-0  22684-3 0  9992,2 53598  53.2111 253.8784 0000688 109.0402 251.0665 15.08831787 25101,6917.905,95.438,540.246,539.295,0.0
53598.0,STARLINK-4676,PAYLOAD,2023-02-08 21:47:42,15.08837439,8.32e-05,53.2104,253.2841,94.1437,265.965,0.00050401,7.742e-05,0.0,0 STARLINK-4676,1 53598U 22104L   23039.90812714  .00007742  00000-0  50401-3 0  9991,2 53598  53.2104 253.2841 0000832  94.1437 265.9650 15.08837439 25810,6917.888,95.438,540.329,539.178,0.0
53598.0,STARLINK-4676,PAYLOAD,2023-02-09 00:58:28,15.08846628,8.13e-05,53.2104,252.6894,105.1239,254.9843,0.00074503,0.00011591,0.0,0 STARLINK-4676,1 53598U 22104L   23040.04060541  .00011591  00000-0  74503-3 0  9997,2 53598  53.2104 252.6894 0000813 105.1239 254.9843 15.08846628 25141,6917.86,95.437,540.288,539.163,0.0
53598.0,STARLINK-4676,PAYLOAD,2023-02-09 20:03:05,15.0887296,9.86e-05,53.2102,249.1208,80.8112,279.2991,0.0010084,0.00015812,0.0,0 STARLINK-4676,1 53598U 22104L   23040.83547695  .00015812  00000-0  10084-2 0  9997,2 53598  53.2102 249.1208 0000986  80.8112 279.2991 15.08872960 25950,6917.78,95.435,540.327,538.963,0.0
53598.0,STARLINK-4676,PAYLOAD,2023-02-09 23:13:51,15.0888032,9.86e-05,53.2101,248.5258,80.796,279.3144,0.0011356,0.00017851,0.0,0 STARLINK-4676,1 53598U 22104L   23040.96795334  .00017851  00000-0  11356-2 0  9994,2 53598  53.2101 248.5258 0000986  80.7960 279.3144 15.08880320 25283,6917.757,95.435,540.304,538.94,0.0
53598.0,STARLINK-4676,PAYLOAD,2023-02-10 19:53:51,15.08865342,0.0001119,53.2104,244.6599,93.7173,266.3947,0.00077369,0.00012055,0.0,0 STARLINK-4676,1 53598U 22104L   23041.82906863  .00012055  00000-0  77369-3 0  9999,2 53598  53.2104 244.6599 0001119  93.7173 266.3947 15.08865342 25419,6917.803,95.436,540.442,538.894,0.0
53598.0,STARLINK-4676,PAYLOAD,2023-02-11 19:44:38,15.08852486,9.63e-05,53.2121,240.1987,83.2498,276.8603,0.0014324,0.0002259,0.0,0 STARLINK-4676,1 53598U 22104L   23042.82267259  .00022590  00000-0  14324-2 0  9995,2 53598  53.2121 240.1987 0000963  83.2498 276.8603 15.08852486 25566,6917.842,95.437,540.373,539.041,0.0
53598.0,STARLINK-4676,PAYLOAD,2023-02-11 22:55:25,15.08850236,9.3e-05,53.2118,239.6035,82.9096,277.2002,0.0011602,0.0001823,0.0,0 STARLINK-4676,1 53598U 22104L   23042.95515209  .00018230  00000-0  11602-2 0  9992,2 53598  53.2118 239.6035 0000930  82.9096 277.2002 15.08850236 25584,6917.849,95.437,540.357,539.071,0.0
53598.0,STARLINK-4676,PAYLOAD,2023-02-12 19:35:26,15.08844928,0.0001042,53.2127,235.7375,92.002,268.1091,0.00084679,0.00013216,0.0,0 STARLINK-4676,1 53598U 22104L   23043.81627390  .00013216  00000-0  84679-3 0  9997,2 53598  53.2127 235.7375 0001042  92.0020 268.1091 15.08844928 25715,6917.865,95.437,540.451,539.009,0.0
53598.0,STARLINK-4676,PAYLOAD,2023-02-13 05:07:44,15.08823557,0.0001509,53.2117,233.9547,63.7903,296.3244,-0.00033418,-5.6e-05,0.0,0 STARLINK-4676,1 53598U 22104L   23044.21371116 -.00005600  00000-0 -33418-3 0  9999,2 53598  53.2117 233.9547 0001509  63.7903 296.3244 15.08823557 25772,6917.931,95.439,540.84,538.752,0.0
53598.0,STARLINK-4676,PAYLOAD,2023-02-13 22:36:59,15.08838781,0.0001028,53.2131,230.6822,81.5057,278.6051,0.00022597,3.31e-05,0.0,0 STARLINK-4676,1 53598U 22104L   23044.94236005  .00003310  00000-0  22597-3 0  9996,2 53598  53.2131 230.6822 0001028  81.5057 278.6051 15.08838781 25888,6917.884,95.438,540.46,539.038,0.0
53598.0,STARLINK-4676,PAYLOAD,2023-02-14 12:55:28,15.0884292,9.54e-05,53.2125,228.0058,80.3308,279.7792,0.00027993,4.17e-05,0.0,0 STARLINK-4676,1 53598U 22104L   23045.53852029  .00004170  00000-0  27993-3 0  9992,2 53598  53.2125 228.0058 0000954  80.3308 279.7792 15.08842920 26667,6917.871,95.437,540.396,539.076,0.0
53598.0,STARLINK-4676,PAYLOAD,2023-02-14 19:17:00,15.08854369,9.3e-05,53.2126,226.8166,84.1867,275.9231,0.00052969,8.156e-05,0.0,0 STARLINK-4676,1 53598U 22104L   23045.80347652  .00008156  00000-0  52969-3 0  9992,2 53598  53.2126 226.8166 0000930  84.1867 275.9231 15.08854369 26701,6917.836,95.437,540.345,539.058,0.0
